IRIDIUM 119             
1 42959U 17061E   24276.44266935  .00000177  00000+0  56091-4 0  9993
2 42959  86.3910 285.4745 0002031  99.1032 261.0394 14.34218474365550
IRIDIUM 107             
1 42960U 17061F   24275.76401257  .00000032  00000+0  42534-5 0  9995
2 42960  86.3910 285.7757 0002154 100.4340 259.7099 14.34217656365469
IRIDIUM 132             
1 42961U 17061G   24275.77035378  .00000100  00000+0  28617-4 0  9995
2 42961  86.3912 285.7572 0002313 101.6485 258.4970 14.34217325365464
IRIDIUM 136             
1 42962U 17061H   24275.73229644  .00000178  00000+0  56668-4 0  9995
2 42962  86.3909 285.7770 0002129  92.8212 267.3227 14.34219246365474
IRIDIUM 139             
1 42963U 17061J   24276.43632692  .00000428  00000+0  14581-3 0  9990
2 42963  86.3912 285.5340 0002276 101.3931 258.7520 14.34219761365581
IRIDIUM 125             
1 42964U 17061K   24276.07479842  .00000003  00000+0 -60463-5 0  9999
2 42964  86.3914 285.7348 0001697 104.8631 255.2753 14.34217439365541
IRIDIUM 135             
1 43070U 17083A   24276.11868117  .00001101  00000+0  38590-3 0  9997
2 43070  86.3982 222.3617 0002933  77.9370 282.2154 14.34220072354848
IRIDIUM 138             
1 43071U 17083B   24275.93475484  .00000846  00000+0  29492-3 0  9994
2 43071  86.3984 222.1428 0001890  80.3432 279.7977 14.34219553354809
